0 FLOCK 4X 15
1 51010U 22002AC  22174.63080654  .00007880  00000-0  42077-3 0  9997
2 51010  97.4896 241.8332 0013600  52.8583 307.3889 15.15312194 24361
0 FLOCK 4X 15
1 51010U 22002AC  22175.42322400  .00006562  00000-0  35097-3 0  9993
2 51010  97.4900 242.6135 0013503  50.4000 309.8422 15.15320229 24488
0 FLOCK 4X 15
1 51010U 22002AC  22175.75339883  .00002925  00000-0  15848-3 0  9993
2 51010  97.4894 242.9399 0013522  49.2372 311.0032 15.15316674 24531
0 FLOCK 4X 15
1 51010U 22002AC  22175.75339883  .00002925  00000-0  15848-3 0  9993
2 51010  97.4894 242.9399 0013522  49.2372 311.0032 15.15316674 24531
0 FLOCK 4X 15
1 51010U 22002AC  22176.41374396  .00004065  00000-0  21883-3 0  9998
2 51010  97.4898 243.5909 0013507  46.8761 313.3599 15.15323266 24636
0 FLOCK 4X 15
1 51010U 22002AC  22176.74391570  .00003947  00000-0  21255-3 0  9998
2 51010  97.4897 243.9161 0013446  46.0052 314.2287 15.15325448 24689
0 FLOCK 4X 15
1 51010U 22002AC  22177.14012014  .00005112  00000-0  27417-3 0  9998
2 51010  97.4896 244.3065 0013392  44.8613 315.3700 15.15331674 24742
0 FLOCK 4X 15
1 51010U 22002AC  22177.47029048  .00004411  00000-0  23709-3 0  9990
2 51010  97.4895 244.6319 0013361  43.9297 316.2995 15.15332657 24793
0 FLOCK 4X 15
1 51010U 22002AC  22177.73442605  .00004437  00000-0  23846-3 0  9997
2 51010  97.4896 244.8922 0013339  42.9911 317.2361 15.15335117 24830
0 FLOCK 4X 15
1 51010U 22002AC  22178.13062819  .00004584  00000-0  24620-3 0  9991
2 51010  97.4896 245.2827 0013314  41.6808 318.5436 15.15339397 24890
0 FLOCK 4X 15
1 51010U 22002AC  22178.72493000  .00004051  00000-0  21796-3 0  9996
2 51010  97.4896 245.8685 0013265  39.8105 320.4098 15.15343992 24984
0 FLOCK 4X 15
1 51010U 22002AC  22178.72493000  .00004051  00000-0  21796-3 0  9996
2 51010  97.4896 245.8685 0013265  39.8105 320.4098 15.15343992 24984
0 FLOCK 4X 15
1 51010U 22002AC  22179.45129679  .00002971  00000-0  16080-3 0  9994
2 51010  97.4895 246.5844 0013199  37.4807 322.7343 15.15347787 25094
0 FLOCK 4X 15
1 51010U 22002AC  22179.78146253  .00002811  00000-0  15231-3 0  9997
2 51010  97.4894 246.9098 0013183  36.4251 323.7875 15.15350218 25143
0 FLOCK 4X 15
1 51010U 22002AC  22180.44179305  .00002488  00000-0  13520-3 0  9995
2 51010  97.4894 247.5608 0013122  34.3099 325.8978 15.15354034 25245
0 FLOCK 4X 15
1 51010U 22002AC  22180.90402384  .00002077  00000-0  11346-3 0  9990
2 51010  97.4892 248.0165 0013074  32.7738 327.4303 15.15355592 25313
0 FLOCK 4X 15
1 51010U 22002AC  22181.16815583  .00001920  00000-0  10518-3 0  9994
2 51010  97.4892 248.2768 0013043  31.7993 328.4025 15.15355622 25352
0 FLOCK 4X 15
1 51010U 22002AC  22181.43228735  .00001867  00000-0  10235-3 0  9997
2 51010  97.4892 248.5372 0013016  30.9511 329.2486 15.15356784 25397
0 FLOCK 4X 15
1 51010U 22002AC  22181.76245141  .00001824  00000-0  10009-3 0  9995
2 51010  97.4891 248.8627 0012985  29.8486 330.3484 15.15358330 25440
0 FLOCK 4X 29
1 51011U 22002AD  22173.11689649  .00011607  00000-0  61879-3 0  9992
2 51011  97.4838 240.2038 0013477  54.5411 305.7077 15.15257970 24131
0 FLOCK 4X 29
1 51011U 22002AD  22173.44708204  .00011113  00000-0  59253-3 0  9992
2 51011  97.4839 240.5290 0013454  53.5029 306.7441 15.15264368 24184
0 FLOCK 4X 29
1 51011U 22002AD  22173.71122927  .00010924  00000-0  58242-3 0  9990
2 51011  97.4839 240.7892 0013437  52.7326 307.5130 15.15270552 24227
0 FLOCK 4X 29
1 51011U 22002AD  22173.90933888  .00011114  00000-0  59243-3 0  9991
2 51011  97.4840 240.9843 0013419  52.1354 308.1090 15.15275200 24252
0 FLOCK 4X 29
1 51011U 22002AD  22174.89987833  .00008962  00000-0  47827-3 0  9991
2 51011  97.4840 241.9598 0013285  48.8943 311.3434 15.15295350 24400
0 FLOCK 4X 29
1 51011U 22002AD  22175.16401989  .00009199  00000-0  49072-3 0  9992
2 51011  97.4840 242.2199 0013231  47.9835 312.2522 15.15301559 24443
0 FLOCK 4X 29
1 51011U 22002AD  22175.16401989  .00009199  00000-0  49072-3 0  9992
2 51011  97.4840 242.2199 0013231  47.9835 312.2522 15.15301559 24443
0 FLOCK 4X 29
1 51011U 22002AD  22175.82437113  .00007465  00000-0  39890-3 0  9994
2 51011  97.4840 242.8702 0013131  45.6460 314.5846 15.15310653 24547
0 FLOCK 4X 29
1 51011U 22002AD  22176.15454499  .00008722  00000-0  46530-3 0  9993
2 51011  97.4839 243.1953 0013072  44.4755 315.7524 15.15317573 24594
0 FLOCK 4X 29
1 51011U 22002AD  22176.74885476  .00009142  00000-0  48742-3 0  9995
2 51011  97.4840 243.7806 0012992  42.4338 317.7896 15.15327696 24685
0 FLOCK 4X 29
1 51011U 22002AD  22176.74885476  .00009142  00000-0  48742-3 0  9995
2 51011  97.4840 243.7806 0012992  42.4338 317.7896 15.15327696 24685
0 FLOCK 4X 29
1 51011U 22002AD  22177.14505798  .00012734  00000-0  67695-3 0  9995
2 51011  97.4841 244.1709 0012999  41.2446 318.9766 15.15341519 24743
0 FLOCK 4X 29
1 51011U 22002AD  22177.73935935  .00010499  00000-0  55880-3 0  9999
2 51011  97.4841 244.7562 0012939  39.2691 320.9478 15.15350366 24832
0 FLOCK 4X 29
1 51011U 22002AD  22178.13555703  .00010366  00000-0  55162-3 0  9991
2 51011  97.4841 245.1465 0012900  38.0259 322.1882 15.15359091 24897
0 FLOCK 4X 29
1 51011U 22002AD  22178.13555703  .00010366  00000-0  55162-3 0  9991
2 51011  97.4841 245.1465 0012900  38.0259 322.1882 15.15359091 24897
0 FLOCK 4X 29
1 51011U 22002AD  22178.72984984  .00009072  00000-0  48313-3 0  9995
2 51011  97.4841 245.7319 0012874  36.1348 324.0752 15.15370124 24986
0 FLOCK 4X 29
1 51011U 22002AD  22179.19207510  .00006959  00000-0  37150-3 0  9998
2 51011  97.4841 246.1872 0012847  34.6664 325.5403 15.15375592 25051
0 FLOCK 4X 29
1 51011U 22002AD  22179.45620282  .00006586  00000-0  35173-3 0  9991
2 51011  97.4843 246.4474 0012804  33.8819 326.3229 15.15379345 25099
0 FLOCK 4X 29
1 51011U 22002AD  22179.72032975  .00006782  00000-0  36207-3 0  9994
2 51011  97.4842 246.7076 0012774  33.0116 327.1911 15.15384201 25136
0 FLOCK 4X 29
1 51011U 22002AD  22180.18255111  .00005963  00000-0  31877-3 0  9993
2 51011  97.4840 247.1629 0012754  31.5961 328.6035 15.15389187 25201
0 FLOCK 4X 29
1 51011U 22002AD  22180.77683392  .00004735  00000-0  25385-3 0  9997
2 51011  97.4839 247.7481 0012685  29.5048 330.6897 15.15393690 25299
0 FLOCK 4X 29
1 51011U 22002AD  22180.90889657  .00004630  00000-0  24830-3 0  9992
2 51011  97.4837 247.8781 0012673  29.0626 331.1309 15.15394554 25312
0 FLOCK 4X 29
1 51011U 22002AD  22181.17302249  .00003189  00000-0  17217-3 0  9998
2 51011  97.4838 248.1388 0012610  28.4471 331.7447 15.15393434 25351
0 FLOCK 4X 29
1 51011U 22002AD  22181.70127302  .00002565  00000-0  13914-3 0  9999
2 51011  97.4836 248.6591 0012571  26.5989 333.5886 15.15395377 25433
0 FLOCK 4X 27
1 51012U 22002AE  22173.44561142  .00004140  00000-0  22334-3 0  9993
2 51012  97.4875 240.6205 0014015  60.6006 299.6623 15.15231707 24183
0 FLOCK 4X 27
1 51012U 22002AE  22173.90787914  .00004077  00000-0  21997-3 0  9994
2 51012  97.4875 241.0759 0014008  59.1655 301.0954 15.15235893 24250
0 FLOCK 4X 27
1 51012U 22002AE  22173.97391732  .00004041  00000-0  21806-3 0  9990
2 51012  97.4875 241.1410 0014002  58.9478 301.3127 15.15236395 24263
0 FLOCK 4X 27
1 51012U 22002AE  22174.37014529  .00004158  00000-0  22421-3 0  9994
2 51012  97.4877 241.5315 0013955  57.6622 302.5959 15.15240558 24325
0 FLOCK 4X 27
1 51012U 22002AE  22174.63429663  .00004003  00000-0  21599-3 0  9996
2 51012  97.4876 241.7917 0013940  56.8570 303.3997 15.15242924 24365
0 FLOCK 4X 27
1 51012U 22002AE  22175.42674294  .00009889  00000-0  52769-3 0  9996
2 51012  97.4878 242.5724 0013848  54.2146 306.0371 15.15264555 24483
0 FLOCK 4X 27
1 51012U 22002AE  22175.42674294  .00009889  00000-0  52769-3 0  9996
2 51012  97.4878 242.5724 0013848  54.2146 306.0371 15.15264555 24483
0 FLOCK 4X 27
1 51012U 22002AE  22175.82296360  .00007747  00000-0  41424-3 0  9991
2 51012  97.4877 242.9628 0013772  52.9832 307.2658 15.15269730 24540
0 FLOCK 4X 27
1 51012U 22002AE  22176.41729171  .00009425  00000-0  50289-3 0  9992
2 51012  97.4878 243.5485 0013712  50.9195 309.3254 15.15281908 24639
0 FLOCK 4X 27
1 51012U 22002AE  22176.81350780  .00009906  00000-0  52826-3 0  9995
2 51012  97.4877 243.9389 0013690  49.6387 310.6039 15.15289880 24697
0 FLOCK 4X 27
1 51012U 22002AE  22176.81350780  .00009906  00000-0  52826-3 0  9995
2 51012  97.4877 243.9389 0013690  49.6387 310.6039 15.15289880 24697
0 FLOCK 4X 27
1 51012U 22002AE  22177.14368537  .00013320  00000-0  70852-3 0  9995
2 51012  97.4878 244.2643 0013666  48.4756 311.7646 15.15302352 24747
0 FLOCK 4X 27
1 51012U 22002AE  22177.73800179  .00011152  00000-0  59375-3 0  9991
2 51012  97.4879 244.8499 0013607  46.5086 313.7275 15.15312573 24839
0 FLOCK 4X 27
1 51012U 22002AE  22178.13420950  .00010945  00000-0  58268-3 0  9990
2 51012  97.4879 245.2403 0013583  45.2856 314.9479 15.15322002 24896
0 FLOCK 4X 27
1 51012U 22002AE  22178.13420950  .00010945  00000-0  58268-3 0  9990
2 51012  97.4879 245.2403 0013583  45.2856 314.9479 15.15322002 24896
0 FLOCK 4X 27
1 51012U 22002AE  22178.72851893  .00008041  00000-0  42913-3 0  9993
2 51012  97.4879 245.8260 0013560  43.5601 316.6700 15.15328401 24982
0 FLOCK 4X 27
1 51012U 22002AE  22179.19075875  .00005327  00000-0  28553-3 0  9991
2 51012  97.4879 246.2816 0013518  42.2651 317.9620 15.15330054 25059
0 FLOCK 4X 27
1 51012U 22002AE  22179.45489520  .00004701  00000-0  25242-3 0  9993
2 51012  97.4879 246.5419 0013524  41.4186 318.8069 15.15331677 25095
0 FLOCK 4X 27
1 51012U 22002AE  22179.71903093  .00004737  00000-0  25433-3 0  9999
2 51012  97.4880 246.8021 0013490  40.6189 319.6047 15.15334578 25138
0 FLOCK 4X 27
1 51012U 22002AE  22180.18126686  .00004766  00000-0  25582-3 0  9994
2 51012  97.4877 247.2578 0013412  38.9991 321.2206 15.15339477 25208
0 FLOCK 4X 27
1 51012U 22002AE  22180.70953453  .00004694  00000-0  25198-3 0  9995
2 51012  97.4876 247.7783 0013351  37.3400 322.8758 15.15345137 25287
